IRIDIUM 921             
1 24873U 97034E   25015.90492198  .00257636  00000+0  11453-2 0  9996
2 24873  86.3635 180.2476 0002364 332.5696  27.5456 15.83684364508509
IRIDIUM 26              
1 24903U 97043A   25015.90281974  .00000703  00000+0  23112-3 0  9995
2 24903  86.3994 174.5323 0001817  95.8928 264.2477 14.36913428434871
IRIDIUM 22              
1 24907U 97043E   25015.91712927  .00000659  00000+0  22150-3 0  9998
2 24907  86.3996 177.9298 0002036  92.3345 267.8085 14.35752316434920
DUMMY MASS 1            
1 24925U 97048A   25016.05148691  .00000668  00000+0  72004-4 0  9994
2 24925  86.3348 205.6012 0005781 346.1340  13.9725 14.86734570482763
DUMMY MASS 2            
1 24926U 97048B   25015.92104626  .00000669  00000+0  72465-4 0  9992
2 24926  86.3348 207.2403 0007016 356.3778   3.7394 14.86488580482280
IRIDIUM 29              
1 24944U 97051A   25016.06180090  .00000651  00000+0  21659-3 0  9990
2 24944  86.3960 207.6335 0002158  85.8829 274.2615 14.36218696431651
IRIDIUM 33              
1 24946U 97051C   25015.94986168  .00000427  00000+0  14382-3 0  9994
2 24946  86.3876 206.9298 0006911 201.4253 158.6655 14.34722853430917
IRIDIUM 28              
1 24948U 97051E   25015.92496448  .00000591  00000+0  19212-3 0  9990
2 24948  86.3968 205.2945 0001740 100.9591 259.1802 14.37160003431979
